HORYU-4                 
1 41340U 16012D   20331.83206647  .00001078  00000-0  74413-4 0  9996
2 41340  31.0065  17.6160 0013884 320.8578  39.1053 15.01640837262306
E-ST@R-II               
1 41459U 16025D   20332.37391510  .00002396  00000-0  12184-3 0  9995
2 41459  98.1185  91.0487 0163922  23.8741 336.9978 15.07008445251977
AAUSAT 4                
1 41460U 16025E   20332.44978563  .00003925  00000-0  19039-3 0  9999
2 41460  98.1181  94.0743 0151620  10.3671 350.0596 15.09567317252220
BEESAT-4                
1 41619U 16040W   20332.10495367  .00004033  00000-0  16658-3 0  9996
2 41619  97.3006  27.6470 0010009 334.1288  25.9448 15.24525148234179
CANX-7                  
1 41788U 16059F   20332.22426900  .00013552  00000-0  17352-2 0  9990
2 41788  98.2567  64.5000 0032017 142.4852 217.8652 14.81082135223888
RAVAN                   
1 41849U 16067B   20331.85793335  .00001356  00000-0  11785-3 0  9998
2 41849  97.9459  84.6154 0009122  70.3622 289.8584 14.98726283220944
CELTEE 1                
1 41850U 16067C   20332.27282248  .00000893  00000-0  82285-4 0  9992
2 41850  97.9407  82.2663 0010383  70.1494 290.0846 14.97286636220862
OPTICUBE 04             
1 41851U 16067D   20331.89844408  .00000057  00000-0  10226-4 0  9990
2 41851  97.9383  81.4128 0009932  72.1395 288.0908 14.96988962220780
AEROCUBE 8D             
1 41852U 16067E   20331.84739898  .00000863  00000-0  80191-4 0  9995
2 41852  97.9385  81.2075 0010773  74.1423 286.0984 14.97016861220751
AEROCUBE 8C             
1 41853U 16067F   20331.88276018  .00000211  00000-0  23597-4 0  9994
2 41853  97.9390  81.1326 0011341  73.0578 287.1885 14.96988588220752
PROMETHEUS 2-1          
1 41854U 16067G   20331.88184946  .00000681  00000-0  63881-4 0  9994
2 41854  97.9402  81.5697 0011671  72.0474 288.2019 14.97369342220777
PROMETHEUS 2-3          
1 41855U 16067H   20332.28219169  .00000684  00000-0  64053-4 0  9991
2 41855  97.9405  82.0172 0011840  71.1832 289.0672 14.97381616220830
INS-1B                  
1 41954U 17008G   20332.47031392  .00003842  00000-0  15535-3 0  9997
2 41954  97.3368  33.8169 0010599  87.2702 272.9749 15.25269332210215
BGUSAT                  
1 41999U 17008BD  20332.16017819  .00006766  00000-0  24750-3 0  9997
2 41999  97.3510  38.6250 0009387  94.5629 265.6683 15.28343229209797
DIDO-2                  
1 42000U 17008BE  20331.75044016  .00001871  00000-0  78238-4 0  9997
2 42000  97.3370  33.5438 0009981 105.3339 254.9002 15.24789999209493
PEASSS                  
1 42015U 17008BV  20332.12684235  .00003241  00000-0  12856-3 0  9994
2 42015  97.3403  35.8601 0007901 105.3248 254.8864 15.26055628210159
AL-FARABI 1             
1 42016U 17008BW  20331.85642169  .00004423  00000-0  16944-3 0  9999
2 42016  97.3442  36.9253 0007688 105.2661 254.9428 15.27022495210309
NAYIF-1 (EO-88)         
1 42017U 17008BX  20331.76511140  .00004054  00000-0  15534-3 0  9998
2 42017  97.3436  36.8448 0007747 104.9908 255.2189 15.27065490210315
UCLSAT                  
1 42765U 17036A   20331.89151889  .00003487  00000-0  14670-3 0  9992
2 42765  97.2810  21.6150 0011517 165.1537 195.0041 15.23977917191317
LITUANICASAT-2          
1 42768U 17036D   20331.86299943  .00005856  00000-0  23805-3 0  9998
2 42768  97.2877  21.8507 0015023 157.0706 203.1206 15.24821271190589
AALTO-1                 
1 42775U 17036L   20331.78190484  .00001886  00000-0  85072-4 0  9991
2 42775  97.2779  18.8496 0014183 162.1429 198.0308 15.22127219190366
URSA MAIOR              
1 42776U 17036M   20332.14490434  .00002411  00000-0  10727-3 0  9990
2 42776  97.2794  19.5594 0014066 160.3650 199.8132 15.22342983190436
COMPASS 2               
1 42777U 17036N   20331.71044771  .00004312  00000-0  17777-3 0  9996
2 42777  97.2862  22.0443 0012699 157.6898 202.4895 15.24523925190513
DIAMOND RED             
1 42783U 17036U   20332.09425159  .00002582  00000-0  11189-3 0  9996
2 42783  97.2808  20.9051 0012209 167.5900 192.5640 15.23202821190507
PEGASUS                 
1 42784U 17036V   20332.14805408  .00003172  00000-0  13504-3 0  9991
2 42784  97.2814  21.4861 0012087 165.9849 194.1727 15.23635041190540
DIAMOND GREEN           
1 42785U 17036W   20332.09326682  .00002698  00000-0  11678-3 0  9990
2 42785  97.2812  20.9445 0012101 168.2246 191.9277 15.23200667190496
DIAMOND BLUE            
1 42786U 17036X   20332.09224695  .00002567  00000-0  11126-3 0  9995
2 42786  97.2812  20.9379 0011928 168.3070 191.8447 15.23202363190498
NUDTSAT                 
1 42787U 17036Y   20332.18743357  .00004593  00000-0  18571-3 0  9999
2 42787  97.2845  23.3213 0011500 160.3575 199.8110 15.25159876190494
SUCHAI                  
1 42788U 17036Z   20332.43841319  .00003940  00000-0  16398-3 0  9995
2 42788  97.2825  22.5164 0011705 162.5123 197.6520 15.24266908190708
SKCUBE                  
1 42789U 17036AA  20331.84632455  .00003456  00000-0  14505-3 0  9999
2 42789  97.2819  21.7398 0011515 164.9641 195.1941 15.24069744190521
VZLUSAT-1               
1 42790U 17036AB  20331.71910629  .00004385  00000-0  17759-3 0  9995
2 42790  97.2850  22.8573 0011098 162.1000 198.0631 15.25129474190571
ROBUSTA-1B              
1 42792U 17036AD  20332.23858615  .00003546  00000-0  14782-3 0  9992
2 42792  97.2821  22.4255 0011154 163.5455 196.6147 15.24279827190614
CICERO 6                
1 42793U 17036AE  20332.10498184  .00002368  00000-0  10208-3 0  9990
2 42793  97.2794  21.4752 0010407 166.4877 193.6641 15.23470602190625
D-SAT                   
1 42794U 17036AF  20331.88280497  .00000677  00000-0  63584-4 0  9998
2 42794  97.4791 356.3736 0125955 182.0382 178.0341 14.91372851186863
CORVUS BC2              
1 42846U 17042X   20332.12770473  .00000427  00000-0  47091-4 0  9997
2 42846  97.4983 208.1268 0011172  94.0277 266.2220 14.92176132183664
CORVUS BC1              
1 42847U 17042Y   20331.91115973  .00000222  00000-0  26914-4 0  9996
2 42847  97.4986 208.1201 0010820  93.8227 266.4230 14.92278213183639
MIRATA                  
1 43015U 17073C   20331.82203272  .00002477  00000-0  19619-3 0  9995
2 43015  97.7122 237.8235 0250571 238.6361 119.0117 14.80056364163234
MAKERSAT 0              
1 43016U 17073D   20331.70032140  .00001488  00000-0  12058-3 0  9998
2 43016  97.7160 237.8463 0253731 240.5186 117.0501 14.79507968163186
DELLINGR (RBLE)         
1 43021U 98067NJ  20331.98254411  .00050423  00000-0  30197-3 0  9990
2 43021  51.6314 166.1195 0001384 232.1156 127.9719 15.77301865172455
AEROCUBE 7B (OCSD B)    
1 43042U 17071F   20332.06120685  .00013166  00000-0  28152-3 0  9995
2 43042  51.6376 347.9238 0003575 290.5379  69.5224 15.45147371167509
AEROCUBE 7C (OCSD C)    
1 43043U 17071G   20332.45549646  .00011717  00000-0  25182-3 0  9991
2 43043  51.6377 346.0722 0003848 296.5538  63.5054 15.45116030167531
CHEFSAT                 
1 43044U 17071H   20332.25486256  .00026841  00000-0  45005-3 0  9997
2 43044  51.6369 325.5779 0002965 319.1332  40.9435 15.51622481167799
ASGARDIA 1              
1 43049U 17071N   20331.47798410  .00011060  00000-0  23874-3 0  9990
2 43049  51.6392 350.1383 0001894 322.2171  37.8682 15.45053342167393
ISARA                   
1 43050U 17071P   20332.04042778  .00021952  00000-0  38918-3 0  9991
2 43050  51.6349 330.7302 0001873 347.6296  12.4647 15.50171755167696
PROPCUBE 2 (FAUNA)      
1 43052U 17071R   20332.44601485  .00012611  00000-0  26546-3 0  9999
2 43052  51.6379 343.1163 0001831 325.8466  34.2403 15.45656734167562
CORVUS BC3              
1 43118U 18004H   20331.85583438  .00002355  00000-0  10108-3 0  9991
2 43118  97.4288  40.6750 0009799 193.3717 166.7262 15.23668240159725
MICROMAS-2A             
1 43131U 18004W   20331.85629491  .00005514  00000-0  21728-3 0  9996
2 43131  97.4349  43.0335 0008610 188.9455 171.1631 15.25973749159853
SPACEBEE-4              
1 43139U 18004AE  20331.73985451  .00007343  00000-0  27489-3 0  9994
2 43139  97.4396  44.5323 0008075 188.3853 171.7252 15.27568716159926
SPACEBEE-3              
1 43140U 18004AF  20331.77479483  .00009418  00000-0  33962-3 0  9991
2 43140  97.4418  45.5401 0007800 185.3566 174.7591 15.28721778159989
SPACEBEE-2              
1 43141U 18004AG  20331.45657348  .00011034  00000-0  39266-3 0  9995
2 43141  97.4432  45.5947 0007756 185.5365 174.5790 15.29111304159955
SPACEBEE-1              
1 43142U 18004AH  20331.90560501  .00012729  00000-0  44594-3 0  9992
2 43142  97.4439  46.4138 0007729 183.8828 176.2354 15.29586884160035
CICERO 7                
1 43143U 18004AJ  20331.85566576  .00005020  00000-0  19824-3 0  9999
2 43143  97.4326  43.1715 0006680 196.0007 164.1022 15.25957429159877
GOMX-4B                 
1 43196U 18015E   20331.88200502  .00002532  00000-0  10544-3 0  9991
2 43196  97.4594  99.4278 0017012 250.8265 109.1131 15.24549446156643
GOMX-4A                 
1 43197U 18015F   20332.40497734  .00002264  00000-0  93869-4 0  9990
2 43197  97.4578 100.0925 0017363 250.9882 182.0075 15.24817075156743
UBAKUSAT                
1 43467U 98067NQ  20332.36364881  .00239565  33536-4  60330-3 0  9992
2 43467  51.6276 155.5912 0003993 248.4706 111.5876 15.95149159145891
CUBERRT                 
1 43546U 98067NU  20331.81655936  .13652478  12467-4  74947-3 0  9998
2 43546  51.6163 158.6708 0006544 274.8638  85.1642 16.42129147135921
TEMPEST-D               
1 43547U 98067NV  20332.15631498  .00023056  00000-0  21530-3 0  9990
2 43547  51.6347 208.6980 0003172 289.4701  70.5953 15.67190180134980
RAINCUBE                
1 43548U 98067NW  20332.48804139  .00262145  38213-4  63906-3 0  9999
2 43548  51.6246 163.8707 0004735 258.0155 102.0322 15.95720718136057
HALOSAT                 
1 43549U 98067NX  20332.04163464  .00155525  20049-4  48797-3 0  9993
2 43549  51.6308 169.3411 0003002 261.1457  98.9209 15.91128031135508
